[
    {
        "Altitude(m)": 553475.2001336323,
        "Argument of Periapsis(deg)": 0.0,
        "Eccentricity": 0.0,
        "Inclination(deg)": 53.0,
        "Latitude(deg)": 13.004257354569244,
        "Longitude(deg)": -125.00239374443595,
        "Mean Anomaly(deg)": 16.363599999999984,
        "RAAN(deg)": 325.0,
        "Satellite Name": "Starlink Shell 1 1431",
        "Satellite Number": 1431,
        "Semi-Major Axis(m)": 6931778.249405717,
        "Time(s)": 0
    },
    {
        "Altitude(m)": 553482.4508322681,
        "Argument of Periapsis(deg)": 0.00034857847951123687,
        "Eccentricity": 0.0,
        "Inclination(deg)": 53.0,
        "Latitude(deg)": 13.500198366137571,
        "Longitude(deg)": -124.64614484464158,
        "Mean Anomaly(deg)": 16.99043120355673,
        "RAAN(deg)": 324.9994812299225,
        "Satellite Name": "Starlink Shell 1 1431",
        "Satellite Number": 1431,
        "Semi-Major Axis(m)": 6931778.249405717,
        "Time(s)": 10
    },
    {
        "Altitude(m)": 553492.233825011,
        "Argument of Periapsis(deg)": 0.0006971569590224737,
        "Eccentricity": 0.0,
        "Inclination(deg)": 53.0,
        "Latitude(deg)": 13.995491590799094,
        "Longitude(deg)": -124.28824990693802,
        "Mean Anomaly(deg)": 17.61726240711343,
        "RAAN(deg)": 324.9989624598451,
        "Satellite Name": "Starlink Shell 1 1431",
        "Satellite Number": 1431,
        "Semi-Major Axis(m)": 6931778.249405717,
        "Time(s)": 20
    },
    {
        "Altitude(m)": 553504.5217615069,
        "Argument of Periapsis(deg)": 0.0010457354385337105,
        "Eccentricity": 0.0,
        "Inclination(deg)": 53.0,
        "Latitude(deg)": 14.490109361001013,
        "Longitude(deg)": -123.92864159079411,
        "Mean Anomaly(deg)": 18.244093610670173,
        "RAAN(deg)": 324.99844368976756,
        "Satellite Name": "Starlink Shell 1 1431",
        "Satellite Number": 1431,
        "Semi-Major Axis(m)": 6931778.249405717,
        "Time(s)": 30
    },
    {
        "Altitude(m)": 553519.2861588452,
        "Argument of Periapsis(deg)": 0.0013943139180449475,
        "Eccentricity": 0.0,
        "Inclination(deg)": 53.0,
        "Latitude(deg)": 14.984023636614973,
        "Longitude(deg)": -123.56725131852326,
        "Mean Anomaly(deg)": 18.870924814226818,
        "RAAN(deg)": 324.99792491969004,
        "Satellite Name": "Starlink Shell 1 1431",
        "Satellite Number": 1431,
        "Semi-Major Axis(m)": 6931778.249405717,
        "Time(s)": 40
    },
    {
        "Altitude(m)": 553536.4974184105,
        "Argument of Periapsis(deg)": 0.0017428923975561844,
        "Eccentricity": 0.0,
        "Inclination(deg)": 53.0,
        "Latitude(deg)": 15.477205988495038,
        "Longitude(deg)": -123.20401025687309,
        "Mean Anomaly(deg)": 19.497756017783566,
        "RAAN(deg)": 324.99740614961263,
        "Satellite Name": "Starlink Shell 1 1431",
        "Satellite Number": 1431,
        "Semi-Major Axis(m)": 6931778.249405717,
        "Time(s)": 50
    },
    {
        "Altitude(m)": 553556.1248432343,
        "Argument of Periapsis(deg)": 0.002091470877067421,
        "Eccentricity": 0.0,
        "Inclination(deg)": 53.0,
        "Latitude(deg)": 15.969627581686504,
        "Longitude(deg)": -122.83884878575628,
        "Mean Anomaly(deg)": 20.124587221340313,
        "RAAN(deg)": 324.99688737953517,
        "Satellite Name": "Starlink Shell 1 1431",
        "Satellite Number": 1431,
        "Semi-Major Axis(m)": 6931778.249405717,
        "Time(s)": 60
    },
    {
        "Altitude(m)": 553578.136655915,
        "Argument of Periapsis(deg)": 0.0024400493565786582,
        "Eccentricity": 0.0,
        "Inclination(deg)": 53.0,
        "Latitude(deg)": 16.461259158275272,
        "Longitude(deg)": -122.47169596701549,
        "Mean Anomaly(deg)": 20.751418424897007,
        "RAAN(deg)": 324.99636860945765,
        "Satellite Name": "Starlink Shell 1 1431",
        "Satellite Number": 1431,
        "Semi-Major Axis(m)": 6931778.249405717,
        "Time(s)": 70
    },
    {
        "Altitude(m)": 553602.5000170217,
        "Argument of Periapsis(deg)": 0.002788627836089895,
        "Eccentricity": 0.0,
        "Inclination(deg)": 53.0,
        "Latitude(deg)": 16.952071019866896,
        "Longitude(deg)": -122.10248052612309,
        "Mean Anomaly(deg)": 21.378249628453755,
        "RAAN(deg)": 324.99584983938024,
        "Satellite Name": "Starlink Shell 1 1431",
        "Satellite Number": 1431,
        "Semi-Major Axis(m)": 6931778.249405717,
        "Time(s)": 80
    },
    {
        "Altitude(m)": 553629.1810440314,
        "Argument of Periapsis(deg)": 0.0031372063156011316,
        "Eccentricity": 0.0,
        "Inclination(deg)": 53.0,
        "Latitude(deg)": 17.442033009679214,
        "Longitude(deg)": -121.73113032109848,
        "Mean Anomaly(deg)": 22.0050808320104,
        "RAAN(deg)": 324.9953310693027,
        "Satellite Name": "Starlink Shell 1 1431",
        "Satellite Number": 1431,
        "Semi-Major Axis(m)": 6931778.249405717,
        "Time(s)": 90
    },
    {
        "Altitude(m)": 553658.1448307647,
        "Argument of Periapsis(deg)": 0.0034857847951123688,
        "Eccentricity": 0.0,
        "Inclination(deg)": 53.0,
        "Latitude(deg)": 17.931114494238432,
        "Longitude(deg)": -121.35757181154611,
        "Mean Anomaly(deg)": 22.631912035567147,
        "RAAN(deg)": 324.99481229922526,
        "Satellite Name": "Starlink Shell 1 1431",
        "Satellite Number": 1431,
        "Semi-Major Axis(m)": 6931778.249405717,
        "Time(s)": 100
    },
    {
        "Altitude(m)": 553689.3554672935,
        "Argument of Periapsis(deg)": 0.003834363274623606,
        "Eccentricity": 0.0,
        "Inclination(deg)": 53.0,
        "Latitude(deg)": 18.419284344667766,
        "Longitude(deg)": -120.98173104072572,
        "Mean Anomaly(deg)": 23.25874323912389,
        "RAAN(deg)": 324.9942935291478,
        "Satellite Name": "Starlink Shell 1 1431",
        "Satellite Number": 1431,
        "Semi-Major Axis(m)": 6931778.249405717,
        "Time(s)": 110
    },
    {
        "Altitude(m)": 553722.7760603379,
        "Argument of Periapsis(deg)": 0.004182941754134842,
        "Eccentricity": 0.0,
        "Inclination(deg)": 53.0,
        "Latitude(deg)": 18.906510917553987,
        "Longitude(deg)": -120.60353310494628,
        "Mean Anomaly(deg)": 23.88557444268059,
        "RAAN(deg)": 324.9937747590703,
        "Satellite Name": "Starlink Shell 1 1431",
        "Satellite Number": 1431,
        "Semi-Major Axis(m)": 6931778.249405717,
        "Time(s)": 120
    },
    {
        "Altitude(m)": 553758.3687541286,
        "Argument of Periapsis(deg)": 0.004531520233646079,
        "Eccentricity": 0.0,
        "Inclination(deg)": 53.0,
        "Latitude(deg)": 19.392762035381164,
        "Longitude(deg)": -120.22290162320233,
        "Mean Anomaly(deg)": 24.512405646237283,
        "RAAN(deg)": 324.9932559889928,
        "Satellite Name": "Starlink Shell 1 1431",
        "Satellite Number": 1431,
        "Semi-Major Axis(m)": 6931778.249405717,
        "Time(s)": 130
    },
    {
        "Altitude(m)": 553796.0947517176,
        "Argument of Periapsis(deg)": 0.0048800987131573164,
        "Eccentricity": 0.0,
        "Inclination(deg)": 53.0,
        "Latitude(deg)": 19.878004966522724,
        "Longitude(deg)": -119.83975971997225,
        "Mean Anomaly(deg)": 25.13923684979398,
        "RAAN(deg)": 324.9927372189154,
        "Satellite Name": "Starlink Shell 1 1431",
        "Satellite Number": 1431,
        "Semi-Major Axis(m)": 6931778.249405717,
        "Time(s)": 140
    },
    {
        "Altitude(m)": 553835.9143367321,
        "Argument of Periapsis(deg)": 0.005228677192668553,
        "Eccentricity": 0.0,
        "Inclination(deg)": 53.0,
        "Latitude(deg)": 20.362206404776586,
        "Longitude(deg)": -119.45402949548816,
        "Mean Anomaly(deg)": 25.76606805335073,
        "RAAN(deg)": 324.9922184488379,
        "Satellite Name": "Starlink Shell 1 1431",
        "Satellite Number": 1431,
        "Semi-Major Axis(m)": 6931778.249405717,
        "Time(s)": 150
    },
    {
        "Altitude(m)": 553877.7868955665,
        "Argument of Periapsis(deg)": 0.00557725567217979,
        "Eccentricity": 0.0,
        "Inclination(deg)": 53.0,
        "Latitude(deg)": 20.84533244843496,
        "Longitude(deg)": -119.06563149640675,
        "Mean Anomaly(deg)": 26.39289925690747,
        "RAAN(deg)": 324.99169967876037,
        "Satellite Name": "Starlink Shell 1 1431",
        "Satellite Number": 1431,
        "Semi-Major Axis(m)": 6931778.249405717,
        "Time(s)": 160
    },
    {
        "Altitude(m)": 553921.6709399894,
        "Argument of Periapsis(deg)": 0.0059258341516910265,
        "Eccentricity": 0.0,
        "Inclination(deg)": 53.0,
        "Latitude(deg)": 21.327348578880358,
        "Longitude(deg)": -118.67448569981904,
        "Mean Anomaly(deg)": 27.01973046046417,
        "RAAN(deg)": 324.99118090868296,
        "Satellite Name": "Starlink Shell 1 1431",
        "Satellite Number": 1431,
        "Semi-Major Axis(m)": 6931778.249405717,
        "Time(s)": 170
    },
    {
        "Altitude(m)": 553967.5241301476,
        "Argument of Periapsis(deg)": 0.006274412631202263,
        "Eccentricity": 0.0,
        "Inclination(deg)": 53.0,
        "Latitude(deg)": 21.80821963869452,
        "Longitude(deg)": -118.28051098492365,
        "Mean Anomaly(deg)": 27.64656166402086,
        "RAAN(deg)": 324.9906621386055,
        "Satellite Name": "Starlink Shell 1 1431",
        "Satellite Number": 1431,
        "Semi-Major Axis(m)": 6931778.249405717,
        "Time(s)": 180
    }
]